FLOCK 4G-17             
1 62681U 25009CA  26189.26118501  .00006765  00000+0  23567-3 0  9998
2 62681  97.3917 270.5223 0003488 244.9098 115.1780 15.29985222139776
FLOCK 4G-33             
1 62685U 25009CE  26189.17157647  .00003919  00000+0  15642-3 0  9999
2 62685  97.3940 268.8042 0004089 245.5945 114.4866 15.25745031 82009
FLOCK 4H-1              
1 66704U 25276AQ  26189.43479213  .00004160  00000+0  19183-3 0  9999
2 66704  97.4167 262.7866 0001321 193.9525 166.1674 15.20796195 33661
FLOCK 4H-2              
1 66705U 25276AR  26189.47547576  .00004277  00000+0  19563-3 0  9993
2 66705  97.4165 262.8729 0000924 159.5932 200.5341 15.21066998 33674
FLOCK 4H-3              
1 66706U 25276AS  26189.46162528  .00003826  00000+0  17984-3 0  9997
2 66706  97.4235 262.7868 0002344 289.0849  71.0133 15.20188625 33659
FLOCK 4H-4              
1 66707U 25276AT  26188.77261236  .00004789  00000+0  22568-3 0  9990
2 66707  97.4211 261.9795 0003121 293.8015  66.2893 15.19973136 33540
FLOCK 4H-5              
1 66708U 25276AU  26188.76933910  .00004343  00000+0  19986-3 0  9991
2 66708  97.4165 262.1522 0000916 130.7089 229.4226 15.20846166 33568
FLOCK 4H-6              
1 66709U 25276AV  26188.74804074  .00004621  00000+0  21430-3 0  9994
2 66709  97.4218 262.1732 0001864 241.6684 118.4363 15.20544483 33552
FLOCK 4H-7              
1 66710U 25276AW  26189.45271560  .00003797  00000+0  17782-3 0  9991
2 66710  97.4176 262.6303 0001168 354.6591   5.4632 15.20321133 33655
FLOCK 4H-8              
1 66711U 25276AX  26188.72014330  .00004126  00000+0  19237-3 0  9995
2 66711  97.4215 262.0543 0002053 318.5140  41.5939 15.20423324 33547
FLOCK 4H-9              
1 66712U 25276AY  26189.45921876  .00003990  00000+0  18452-3 0  9995
2 66712  97.4206 262.8743 0001925 248.7604 111.3426 15.20727993 33663
FLOCK 4H-10             
1 66713U 25276AZ  26189.48140619  .00004704  00000+0  22087-3 0  9990
2 66713  97.4182 262.6140 0002901 291.7162  68.3764 15.20104919 33650
FLOCK 4H-11             
1 66714U 25276BA  26189.45460638  .00008287  00000+0  35314-3 0  9991
2 66714  97.4187 263.1480 0001172 296.3511  63.7605 15.23206814 33683
FLOCK 4H-12             
1 66715U 25276BB  26188.72260259  .00004383  00000+0  20224-3 0  9995
2 66715  97.4179 262.0870 0001057 207.4810 152.6370 15.20748833 33869
FLOCK 4H-13             
1 66716U 25276BC  26189.48324127  .00004643  00000+0  21336-3 0  9999
2 66716  97.4214 263.0054 0001433 150.8455 209.2860 15.20857252 33677
FLOCK 4H-14             
1 66717U 25276BD  26189.51145115  .00004315  00000+0  19596-3 0  9993
2 66717  97.4196 263.0769 0001389 145.6148 214.5178 15.21308236 32934
