{"fetched_at":"2026-07-08T17:59:26.812Z","source":"https://celestrak.org/NORAD/elements/gp.php?GROUP=planet&FORMAT=JSON","constellation":"superdove","records":[{"OBJECT_NAME":"FLOCK 4G-17","OBJECT_ID":"2025-009CA","EPOCH":"2026-07-08T06:16:06.384864","CLASSIFICATION_TYPE":"U","MEAN_MOTION":15.29985222,"ECCENTRICITY":0.0003488,"INCLINATION":97.3917,"RA_OF_ASC_NODE":270.5223,"ARG_OF_PERICENTER":244.9098,"MEAN_ANOMALY":115.178,"EPHEMERIS_TYPE":0,"NORAD_CAT_ID":62681,"ELEMENT_SET_NO":999,"REV_AT_EPOCH":13977,"BSTAR":0.00023567,"MEAN_MOTION_DOT":0.00006765,"MEAN_MOTION_DDOT":0},{"OBJECT_NAME":"FLOCK 4G-33","OBJECT_ID":"2025-009CE","EPOCH":"2026-07-08T04:07:04.207008","CLASSIFICATION_TYPE":"U","MEAN_MOTION":15.25745031,"ECCENTRICITY":0.0004089,"INCLINATION":97.394,"RA_OF_ASC_NODE":268.8042,"ARG_OF_PERICENTER":245.5945,"MEAN_ANOMALY":114.4866,"EPHEMERIS_TYPE":0,"NORAD_CAT_ID":62685,"ELEMENT_SET_NO":999,"REV_AT_EPOCH":8200,"BSTAR":0.00015642,"MEAN_MOTION_DOT":0.00003919,"MEAN_MOTION_DDOT":0},{"OBJECT_NAME":"FLOCK 4H-1","OBJECT_ID":"2025-276AQ","EPOCH":"2026-07-08T10:26:06.040032","CLASSIFICATION_TYPE":"U","MEAN_MOTION":15.20796195,"ECCENTRICITY":0.0001321,"INCLINATION":97.4167,"RA_OF_ASC_NODE":262.7866,"ARG_OF_PERICENTER":193.9525,"MEAN_ANOMALY":166.1674,"EPHEMERIS_TYPE":0,"NORAD_CAT_ID":66704,"ELEMENT_SET_NO":999,"REV_AT_EPOCH":3366,"BSTAR":0.00019183,"MEAN_MOTION_DOT":0.0000416,"MEAN_MOTION_DDOT":0},{"OBJECT_NAME":"FLOCK 4H-2","OBJECT_ID":"2025-276AR","EPOCH":"2026-07-08T11:24:41.105664","CLASSIFICATION_TYPE":"U","MEAN_MOTION":15.21066998,"ECCENTRICITY":0.0000924,"INCLINATION":97.4165,"RA_OF_ASC_NODE":262.8729,"ARG_OF_PERICENTER":159.5932,"MEAN_ANOMALY":200.5341,"EPHEMERIS_TYPE":0,"NORAD_CAT_ID":66705,"ELEMENT_SET_NO":999,"REV_AT_EPOCH":3367,"BSTAR":0.00019563,"MEAN_MOTION_DOT":0.00004277,"MEAN_MOTION_DDOT":0},{"OBJECT_NAME":"FLOCK 4H-3","OBJECT_ID":"2025-276AS","EPOCH":"2026-07-08T11:04:44.424192","CLASSIFICATION_TYPE":"U","MEAN_MOTION":15.20188625,"ECCENTRICITY":0.0002344,"INCLINATION":97.4235,"RA_OF_ASC_NODE":262.7868,"ARG_OF_PERICENTER":289.0849,"MEAN_ANOMALY":71.0133,"EPHEMERIS_TYPE":0,"NORAD_CAT_ID":66706,"ELEMENT_SET_NO":999,"REV_AT_EPOCH":3365,"BSTAR":0.00017984,"MEAN_MOTION_DOT":0.00003826,"MEAN_MOTION_DDOT":0},{"OBJECT_NAME":"FLOCK 4H-4","OBJECT_ID":"2025-276AT","EPOCH":"2026-07-07T18:32:33.707904","CLASSIFICATION_TYPE":"U","MEAN_MOTION":15.19973136,"ECCENTRICITY":0.0003121,"INCLINATION":97.4211,"RA_OF_ASC_NODE":261.9795,"ARG_OF_PERICENTER":293.8015,"MEAN_ANOMALY":66.2893,"EPHEMERIS_TYPE":0,"NORAD_CAT_ID":66707,"ELEMENT_SET_NO":999,"REV_AT_EPOCH":3354,"BSTAR":0.00022568,"MEAN_MOTION_DOT":0.00004789,"MEAN_MOTION_DDOT":0},{"OBJECT_NAME":"FLOCK 4H-5","OBJECT_ID":"2025-276AU","EPOCH":"2026-07-07T18:27:50.898240","CLASSIFICATION_TYPE":"U","MEAN_MOTION":15.20846166,"ECCENTRICITY":0.0000916,"INCLINATION":97.4165,"RA_OF_ASC_NODE":262.1522,"ARG_OF_PERICENTER":130.7089,"MEAN_ANOMALY":229.4226,"EPHEMERIS_TYPE":0,"NORAD_CAT_ID":66708,"ELEMENT_SET_NO":999,"REV_AT_EPOCH":3356,"BSTAR":0.00019986,"MEAN_MOTION_DOT":0.00004343,"MEAN_MOTION_DDOT":0},{"OBJECT_NAME":"FLOCK 4H-6","OBJECT_ID":"2025-276AV","EPOCH":"2026-07-07T17:57:10.719936","CLASSIFICATION_TYPE":"U","MEAN_MOTION":15.20544483,"ECCENTRICITY":0.0001864,"INCLINATION":97.4218,"RA_OF_ASC_NODE":262.1732,"ARG_OF_PERICENTER":241.6684,"MEAN_ANOMALY":118.4363,"EPHEMERIS_TYPE":0,"NORAD_CAT_ID":66709,"ELEMENT_SET_NO":999,"REV_AT_EPOCH":3355,"BSTAR":0.0002143,"MEAN_MOTION_DOT":0.00004621,"MEAN_MOTION_DDOT":0},{"OBJECT_NAME":"FLOCK 4H-7","OBJECT_ID":"2025-276AW","EPOCH":"2026-07-08T10:51:54.627840","CLASSIFICATION_TYPE":"U","MEAN_MOTION":15.20321133,"ECCENTRICITY":0.0001168,"INCLINATION":97.4176,"RA_OF_ASC_NODE":262.6303,"ARG_OF_PERICENTER":354.6591,"MEAN_ANOMALY":5.4632,"EPHEMERIS_TYPE":0,"NORAD_CAT_ID":66710,"ELEMENT_SET_NO":999,"REV_AT_EPOCH":3365,"BSTAR":0.00017782,"MEAN_MOTION_DOT":0.00003797,"MEAN_MOTION_DDOT":0},{"OBJECT_NAME":"FLOCK 4H-8","OBJECT_ID":"2025-276AX","EPOCH":"2026-07-07T17:17:00.381120","CLASSIFICATION_TYPE":"U","MEAN_MOTION":15.20423324,"ECCENTRICITY":0.0002053,"INCLINATION":97.4215,"RA_OF_ASC_NODE":262.0543,"ARG_OF_PERICENTER":318.514,"MEAN_ANOMALY":41.5939,"EPHEMERIS_TYPE":0,"NORAD_CAT_ID":66711,"ELEMENT_SET_NO":999,"REV_AT_EPOCH":3354,"BSTAR":0.00019237,"MEAN_MOTION_DOT":0.00004126,"MEAN_MOTION_DDOT":0},{"OBJECT_NAME":"FLOCK 4H-9","OBJECT_ID":"2025-276AY","EPOCH":"2026-07-08T11:01:16.500864","CLASSIFICATION_TYPE":"U","MEAN_MOTION":15.20727993,"ECCENTRICITY":0.0001925,"INCLINATION":97.4206,"RA_OF_ASC_NODE":262.8743,"ARG_OF_PERICENTER":248.7604,"MEAN_ANOMALY":111.3426,"EPHEMERIS_TYPE":0,"NORAD_CAT_ID":66712,"ELEMENT_SET_NO":999,"REV_AT_EPOCH":3366,"BSTAR":0.00018452,"MEAN_MOTION_DOT":0.0000399,"MEAN_MOTION_DDOT":0},{"OBJECT_NAME":"FLOCK 4H-10","OBJECT_ID":"2025-276AZ","EPOCH":"2026-07-08T11:33:13.494816","CLASSIFICATION_TYPE":"U","MEAN_MOTION":15.20104919,"ECCENTRICITY":0.0002901,"INCLINATION":97.4182,"RA_OF_ASC_NODE":262.614,"ARG_OF_PERICENTER":291.7162,"MEAN_ANOMALY":68.3764,"EPHEMERIS_TYPE":0,"NORAD_CAT_ID":66713,"ELEMENT_SET_NO":999,"REV_AT_EPOCH":3365,"BSTAR":0.00022087,"MEAN_MOTION_DOT":0.00004704,"MEAN_MOTION_DDOT":0},{"OBJECT_NAME":"FLOCK 4H-11","OBJECT_ID":"2025-276BA","EPOCH":"2026-07-08T10:54:37.991232","CLASSIFICATION_TYPE":"U","MEAN_MOTION":15.23206814,"ECCENTRICITY":0.0001172,"INCLINATION":97.4187,"RA_OF_ASC_NODE":263.148,"ARG_OF_PERICENTER":296.3511,"MEAN_ANOMALY":63.7605,"EPHEMERIS_TYPE":0,"NORAD_CAT_ID":66714,"ELEMENT_SET_NO":999,"REV_AT_EPOCH":3368,"BSTAR":0.00035314,"MEAN_MOTION_DOT":0.00008287,"MEAN_MOTION_DDOT":0},{"OBJECT_NAME":"FLOCK 4H-12","OBJECT_ID":"2025-276BB","EPOCH":"2026-07-07T17:20:32.863776","CLASSIFICATION_TYPE":"U","MEAN_MOTION":15.20748833,"ECCENTRICITY":0.0001057,"INCLINATION":97.4179,"RA_OF_ASC_NODE":262.087,"ARG_OF_PERICENTER":207.481,"MEAN_ANOMALY":152.637,"EPHEMERIS_TYPE":0,"NORAD_CAT_ID":66715,"ELEMENT_SET_NO":999,"REV_AT_EPOCH":3386,"BSTAR":0.00020224,"MEAN_MOTION_DOT":0.00004383,"MEAN_MOTION_DDOT":0},{"OBJECT_NAME":"FLOCK 4H-13","OBJECT_ID":"2025-276BC","EPOCH":"2026-07-08T11:35:52.045728","CLASSIFICATION_TYPE":"U","MEAN_MOTION":15.20857252,"ECCENTRICITY":0.0001433,"INCLINATION":97.4214,"RA_OF_ASC_NODE":263.0054,"ARG_OF_PERICENTER":150.8455,"MEAN_ANOMALY":209.286,"EPHEMERIS_TYPE":0,"NORAD_CAT_ID":66716,"ELEMENT_SET_NO":999,"REV_AT_EPOCH":3367,"BSTAR":0.00021336,"MEAN_MOTION_DOT":0.00004643,"MEAN_MOTION_DDOT":0},{"OBJECT_NAME":"FLOCK 4H-14","OBJECT_ID":"2025-276BD","EPOCH":"2026-07-08T12:16:29.379360","CLASSIFICATION_TYPE":"U","MEAN_MOTION":15.21308236,"ECCENTRICITY":0.0001389,"INCLINATION":97.4196,"RA_OF_ASC_NODE":263.0769,"ARG_OF_PERICENTER":145.6148,"MEAN_ANOMALY":214.5178,"EPHEMERIS_TYPE":0,"NORAD_CAT_ID":66717,"ELEMENT_SET_NO":999,"REV_AT_EPOCH":3293,"BSTAR":0.00019596,"MEAN_MOTION_DOT":0.00004315,"MEAN_MOTION_DDOT":0}]}
